Name,Street,City,State,Phone,Website,Email,Type,Services,Comments,Hours
Abia State University Teaching Hospital,,,,,"abiastateuniversity.edu.ng, absuthng.org",info@absuthng.org,Public,"Health Care Training,Surgery,Internal medicine,Vesicovaginal fistula (VVF) surgery and,HIV Care including Antiretroviral Treatment program,Obstetrics,Pediatrics,Gynecology,Ophthalmology",,"[object Object],[object Object],[object Object],[object Object],[object Object],[object Object],[object Object]"
Federal Medical Centre Umuahia,,,,,fmc-umuahia.com.ng,"fmcumuahia@fmc-umuahia.com.ng, fmcnhisumuahia@yahoo.com",Public,"Dental Clinic,Eye Clinic,Medical Services: Gastroenterology, Hematology,Surgical Services: General Surgery, Anaesthesia, Pediatric Surgery,Obstetrics and Gynecology Services: Obstetrics, Gynecology, Fertility/Assisted Reproductive Techniques,Pediatrics Services: Gastroenterology, Nephrology, Oncology, Endocrinology,Specific Clinical Services: Antenatal Care (ANC), Immunization, HIV/ AIDS, Non-Communicable Diseases, Family Planning, Intensive Care, Communicable Diseases, Hepatitis, Accidents and Emergency, Nutrition, Health Education, Community Mobilization, Maternal and newborn care,Onsite Laboratory,Outpatient Services,Inpatient Services,Onsite Laboratory,Onsite Imaging,Onsite Pharmacy,Ambulance Service","Child Friendly,Free Parking,Debit Cards","[object Object],[object Object],[object Object],[object Object],[object Object],[object Object],[object Object]"
LIFE CARE CLINICS LTD,,,,,,lifecareclinicsltdaba@yahoo.com,Private,"Medical Services: Gastroenterology, Hematology,Surgical Services: General Surgery, Anaesthesia, Pediatric Surgery,Obstetrics and Gynecology Services: Obstetrics Gynecology Fertility/Assisted Reproductive Techniques,Pediatrics Services: Gastroenterology Nephrology Oncology Endocrinology,Specific Clinical Services: Antenatal Care (ANC), Immunization, HIV/ AIDS, Non-Communicable Diseases, Family Planning, Intensive Care, Communicable Diseases, Hepatitis, Accidents and Emergency, Nutrition, Health Education, Community Mobilization, Maternal and newborn care,Onsite Laboratory,Onsite Imaging,Onsite Pharmacy,Ambulance Service","Free Parking,Debit Cards","[object Object],[object Object],[object Object],[object Object],[object Object],[object Object],[object Object]"
Living Word Mission Hospital,,,,,livingwordmissionhospital@yahoo.com,,Private,"Dental Clinic,Eye Clinic,Onsite Laboratory,Onsite Pharmacy,Ambulance Service","Child Friendly,Free Parking,Debit Cards","[object Object],[object Object],[object Object],[object Object],[object Object],[object Object],[object Object]"
Mendel Hospital,,,,,,mendel.hosiptal@yahoo.com,Private,General hospital services,,"[object Object],[object Object],[object Object],[object Object],[object Object],[object Object],[object Object]"
New Era Hospital Limited,,,,,,newera6000@yahoo.com,Private,"Eye Clinic,Dental Clinic,Medical Services: Gastroenterology, Hematology,Surgical Services: General Surgery, Anaesthesia, Pediatrics Surgery,Obstetrics and Gynecology Services: Obstetrics, Gynecology, Fertility/Assisted Reproductive Techniques,Pediatrics Services: Gastroenterology, Nephrology, Oncology, Endocrinology,Specific Clinical Services: Antenatal Care (ANC), Immunization, HIV/ AIDS, Non-Communicable Diseases, Family Planning, Intensive Care, Communicable Diseases, Hepatitis, Accidents and Emergency, Nutrition, Health Education, Community Mobilization, Maternal and newborn care,Onsite Laboratory,Onsite Imaging,Onsite Pharmacy,Ambulance Service","Child Friendly,Debit Cards","[object Object],[object Object],[object Object],[object Object],[object Object],[object Object],[object Object]"
Nigerian Christian Hospital,,,,,sites.google.com/a/davidlipscomb.org/west-end-m/Home/nigerian-christian-hospital,tom.ihcf@sbcglobal.net,Missionary,"Medical,Obstetrical,Surgical,Pediatric,Outpatient Services","Teaching and Preaching the message of Jesus,Training ground for young Doctors and Nurses, both Nigerian and expatriate,You will find many opportunities, both medical and non-medical, to serve on this large Hospital compound","[object Object],[object Object],[object Object],[object Object],[object Object],[object Object],[object Object]"
Alpha Inland Hospital,,,,,,drenweremadu@yahoo.com,Private,"Eye Care,Cancer Management,Dental Care,Preventive Healthcare.",,"[object Object],[object Object],[object Object],[object Object],[object Object],[object Object],[object Object]"
St. Anthony's Hospital,,,,,,,Private,General hospital services,,"[object Object],[object Object],[object Object],[object Object],[object Object],[object Object],[object Object]"
Zikora Medical Center,,,,,,,Private,General hospital services,,"[object Object],[object Object],[object Object],[object Object],[object Object],[object Object],[object Object]"
Lily Hospitals,,,,,lilyhospitals.com,"contact@lilyhospitals.com, frontdesk@lilyhospitals.com",Private,"Dermatology,Obstetrics and Gynecology,Audiology,Physiotherapy,Orthopedics,Paediatrics,In-patient care,Fertility,Nutritio and diatetics,Family care,Eye center,Ear-Nose-Throat,Diagnotics,Dental,Cardiology,IVF,Internships for medical doctors, radiographers, optometrists, and pharmacists","Numerous brances in Warri, Delta state","[object Object],[object Object],[object Object],[object Object],[object Object],[object Object],[object Object]"
NGOZI HOSPITAL,,,,,,,,General hospital services,,"[object Object],[object Object],[object Object],[object Object],[object Object],[object Object],[object Object]"
Ekeoma Memorial Hospital,,,,,,stephenonwere@yahoo.com,Private,"Medical Services: Gastroenterology, Hematology,Surgical Services: General Surgery, Anaesthesia, Pediatric Surgery,Obstetrics and Gynecology Services: Obstetrics, Gynecology, Fertility/Assisted Reproductive Techniques,Pediatrics Services: Gastroenterology, Nephrology, Oncology, Endocrinology,Specific Clinical Services: Antenatal Care (ANC), Immunization, HIV/ AIDS, Non-Communicable Diseases, Family Planning, Intensive Care, Communicable Diseases, Hepatitis, Accidents and Emergency, Nutrition, Health Education, Community Mobilization, Maternal and newborn care,Onsite Laboratory,Outpatient Services,Inpatient Services,Onsite Laboratory,Onsite Imaging,Onsite Pharmacy,Ambulance Service","Child Friendly,Free Parking,Debit Cards","[object Object],[object Object],[object Object],[object Object],[object Object],[object Object],[object Object]"
Healing Cross Hospital,,,,,,,Private,General hospital services,Wheelchair-accessible entrance,"[object Object],[object Object],[object Object],[object Object],[object Object],[object Object],[object Object]"
Hammersmith Medical Centre,,,,,,,Private,"General Hospital services,Health services,Centre for health care,Laboratory","Accepts Credit Cards,Street Parking,Pet Friendly,Reservation","[object Object],[object Object],[object Object],[object Object],[object Object],[object Object],[object Object]"
Madonna Catholic Hospital,,,,,info@mchumuahia.com,madonnacatholichospitalumuahia@gmail.com,Private,"Cardiology: Adult congenital heart disease (ACHD), and Respiratory medicine.,Pediatrics Services: Gastroenterology, Oncology,Obstetrics and Gynaecology: Routine care, Birth control, Fertility, Gynecologic cancer,Dietetic Services,Radiology,Physiotherapy,Dermatology,Laboratory Service,Mortuary Service",Emergency Service 24/7,"[object Object],[object Object],[object Object],[object Object],[object Object],[object Object],[object Object]"
Horstman Hospital Limited,,,,,,,Private,"Medical Services: Gastroenterology, Hematology,Surgical Services: General Surgery, Anaesthesia, Pediatric Surgery,Obstetrics and Gynecology Services: Obstetrics, Gynecology, Fertility/Assisted Reproductive Techniques,Pediatrics Services: Gastroenterology, Nephrology, Oncology, Endocrinology,Specific Clinical Services: Antenatal Care (ANC), Immunization, HIV/ AIDS, Non-Communicable Diseases, Family Planning, Intensive Care, Communicable Diseases, Hepatitis, Accidents and Emergency, Nutrition, Health Education, Community Mobilization, Maternal and newborn care,Onsite Laboratory,Outpatient Services,Inpatient Services,Onsite Laboratory,Onsite Imaging,Onsite Pharmacy,Ambulance Service","Debit Cards,Free Parking,Child Friendly","[object Object],[object Object],[object Object],[object Object],[object Object],[object Object],[object Object]"
Obioma Hospital Maternity and Laboratory,,,,,obiomahospital.gnbo.com.ng,obiomahm@yahoo.com,Private,"Medical Services: Gastroenterology, Hematology,Surgical Services: General Surgery, Anaesthesia, Pediatric Surgery,Obstetrics and Gynecology Services: Obstetrics, Gynecology, Fertility/Assisted Reproductive Techniques,Pediatrics Services: Gastroenterology, Nephrology, Oncology, Endocrinology,Specific Clinical Services: Antenatal Care (ANC), Immunization, HIV/ AIDS, Non-Communicable Diseases, Family Planning, Intensive Care, Communicable Diseases, Hepatitis, Accidents and Emergency, Nutrition, Health Education, Community Mobilization, Maternal and newborn care,Onsite Laboratory,Outpatient Services,Inpatient Services,Onsite Laboratory,Onsite Imaging,Onsite Pharmacy,Ambulance Service","Debit Cards,Free Parking","[object Object],[object Object],[object Object],[object Object],[object Object],[object Object],[object Object]"
Blessed Haven Hospital Limited,,,,,,,Private,"Health services,Centre for health care,General Hospital services,Onsite Pharmacy","Debit Cards,Child Friendly","[object Object],[object Object],[object Object],[object Object],[object Object],[object Object],[object Object]"
Mercy Specialist Hospital,,,,,mercyspecialisthospital.org,info@mercyspecialisthospital.org,Missionary,"General Hospital services,Onsite Pharmacy","Debit Cards,Free Parking,Child Friendly","[object Object],[object Object],[object Object],[object Object],[object Object],[object Object],[object Object]"
Uzondu Hospital and Polyclinic,,,,,,,Public,"Health services,Centre for health care,General Hospital services","Debit Cards,Child Friendly,Free Parking,Wheelchair-accessible","[object Object],[object Object],[object Object],[object Object],[object Object],[object Object],[object Object]"
The Lords Foundation Clinic,,,,,,,Private,"Health service,Centre for health care,General hospital services,Onsite Pharmacy","Accepts Credit Cards,Child Friendly,Street Parking,Reservation","[object Object],[object Object],[object Object],[object Object],[object Object],[object Object],[object Object]"
Abia State Specialist Hospital & Diagnostic Centre,,,,,abiaspecialisthospital.com.ng,Abiainfo@abiaspecialisthospital.com.ng,Public,"Dialysis,Birth Centers,Digonistics Testing,General Medical Practice,Emergency Care,Pharmacy,Laboratory Service","The first Dialysis Centre in the South East zone of the country,Ultra modern with much-in-demand diagnostic machines, where affordable and quality health care is offered.,Lot of facilities and equipment that has redirected medical tourism to its doors.,Very safe location.","[object Object],[object Object],[object Object],[object Object],[object Object],[object Object],[object Object]"
Beacon Hospital,,,,,,,Private,Hospital and Clinic Services,,"[object Object],[object Object],[object Object],[object Object],[object Object],[object Object],[object Object]"
Bethsaida Specialist Hospital,,,,,,,Private,,Wheelchair-accessible,"[object Object],[object Object],[object Object],[object Object],[object Object],[object Object],[object Object]"
Synapse Oak Unit,,,,,synapseservices.org/our-facilities-oak.html,synapse_oak@synapseservices.org,Private,"Substance misuse services/addiction services,Neuropsychiatry,Women's health,Child and adolescent mental health,Eating disorders,Personality Disorders Service,Deafness and mental health services,Learning Disabilities,Early intervention psychosis program,Attention Deficit Hyperactivity Disorder (ADHD),Acquired brain injury,Autistic spectrum disorders","Activity Programmes such as book club, music occupations, gardening, puzzles and card games, religious services,24 hours professional nursing care, private bedrooms most with en-suite; with laundry services, nurse call system in all rooms,Latest Technologies: The Repetitive Transcranial Magnetic Stimulation Machine (rTMS), is used for the treatment of drug addiction and/or psychotherapy,A large range of food menus and catering which respond to every special dietary requirements,Long stay supported accommodation","[object Object],[object Object],[object Object],[object Object],[object Object],[object Object],[object Object]"
BEX MEMORIAL HOSPITAL,,,,,www.bexhospital.com,contact@bexhospital.com,Private,"Health Advice,Counselling and Consultation,Bex Dietetics: Learn Diet and its effects on health,Theatre: 21st Century state of art Surgical Theatre,Bex Dispensary: Pharmacy and Clinic,Bex Geriatrics: Home for the Old,Laboratory: Fully Equiped Medical Laboratory,Bex Imaging: With the help of technology, the interior body is visualized for medical analysis,Bex Diagnostics: Get Medical test runs, Results and professional Ultrasound scans,Physiotherapy: Physiotherapy and Rehabilitation,Bex Medical Assistant program",Friendly and Expert Doctors,"[object Object],[object Object],[object Object],[object Object],[object Object],[object Object],[object Object]"
Chimex specialist hospital,,,,,chimexhospital.com,,Private,Medical Services,"Debit Cards,Free Parking,One of the largest speciality institutes located in Nnewi,Allows clients to receive comprehensive care of their medical conditions through cross consultations with different specialities","[object Object],[object Object],[object Object],[object Object],[object Object],[object Object],[object Object]"
Venik Specialist Hospital Maternity,,,,,,ikeokonowo_obeyn@yahoo.com,Private,"Medical Services: Nuclear Medicine,Surgical Services: General Surgery,Pediatrics Services,Specific Clinical Services: Antenatal Care (ANC), Immunization, HIV/ AIDS Services, Non Communicable Diseases, Family Planning, Communicable Diseases, Hepatitis, Nutrition, Health Education and Community Mobilization, Maternal and newborn care,Obstetrics and Gynecology Services: Obstetrics, Gynecology,Onsite Pharmacy","Free Parking,Child Friendly,Debit Cards","[object Object],[object Object],[object Object],[object Object],[object Object],[object Object],[object Object]"
Asueifai Hospital,,,,,asueifai-hospital.business.site,asuefaihos@yahoo.com,Private,,Wheelchair-accessible,"[object Object],[object Object],[object Object],[object Object],[object Object],[object Object],[object Object]"
Crest Hospital,,,,,,,Private,"Gynecological,Surgery,Pediatrics,General medical practice",,"[object Object],[object Object],[object Object],[object Object],[object Object],[object Object],[object Object]"
Niger Delta University Teaching Hospital,,,,,nduth.org.ng,,Public,"Radiology,Dental and Maxillofacial,Otorhinolaryngology,Anaesthesia,Hematology,Orthopedics,Pediatrics,Obstetrics and Gynecology,Surgery,Specific Clinical Services: HIV/ AIDS, Family Planning, Community Medicine, Mental Health, Internal Medicine, Social Welfare","Qualified Staff of Doctors,Feel like you are at Home Services,24x7 Emergency Services,Easy and Affordable Billing","[object Object],[object Object],[object Object],[object Object],[object Object],[object Object],[object Object]"
Bayelsa Diagnostic Centre,,,,,bayelsadiagnostic.com,bdc@trigencraton.com,Public,"Cardiology,Pathology,Endoscopy,Radiology,Wellness","Bayelsa Diagnostic Centre (BDC) is a state-of-the-art facility that offers world class diagnostic services; the first of its kind in the region,At BDC, they believe in improving health and wellness through affordable health screening and diagnostic care,Advance technological imaging modalities and competent work force,Radiology department houses a Toshiba Vantage 1.5 Tesla MRI and digital X-ray systems","[object Object],[object Object],[object Object],[object Object],[object Object],[object Object],[object Object]"
May Dental Hospital,,,,,may-dental-hospital.business.site,maydenthosp@yahoo.com,Private,"Teeth whitening,Dental implants,Cosmetic dentistry",,"[object Object],[object Object],[object Object],[object Object],[object Object],[object Object],[object Object]"
Federal Medical Centre (FMC),,,,,fmcyenagoa.org.ng,info@fmcyenagoa.org.ng,Public,"DENTAL AND MAXILLOFACIAL SURGERY,Obstetrics and Gynecology,Dialysis,Pediatrics,Physiotherapy,Ophthalmology,NURSING SERVICES,CENTRAL STERILIZATION AND SUPPLY,Specific Clinical Services: DNA Testing, Antenatal Care (ANC), NUTRUTION & DIETETIC SERVICES, COMMUNITY MEDICINE/PUBLIC HEALTH, MENTAL HEALTH, FAMILY MEDICINE/ GOPD,Pharmacy,Cardiology,Laboratory","Free Checkup,Easy and Affordable Billing,PARKING SPACES: Spacious compound for car park,BUS ROUTES: Closest Bus stop is Hospital Junction,ACCESIBILITY: Use of ramps for easier access","[object Object],[object Object],[object Object],[object Object],[object Object],[object Object],[object Object]"
Yenagoa Hospital And Maternity,,,,,yenagoahospital.com,"Info@yenagoahospital.com, yenagoahosp@gmail.com",Public,"Medical Services,Maternity Care,Intensive care,Surgical,Pediatrics",Wheelchair-accessible,"[object Object],[object Object],[object Object],[object Object],[object Object],[object Object],[object Object]"
Dialysis World Nigeria,,,,,,info@dialysisworldnigeria.org,Public,"Renal Dialysis & Transplant,International and Local dialysis training,Consultation services in dialysis unit set up,Operation & Management",Publishes health news and healthcare jobs,"[object Object],[object Object],[object Object],[object Object],[object Object],[object Object],[object Object]"
Silhoutte Radiodiagnostic Consultants,,,,,,info@silhouette.com.ng,Private,"Radiography,Medical diagnosis,Fertility consulting,Blood test and hypertension treatment","Silhouette Radio-Diagnostic Consultants is a fast growing Medical firm, they are now also supplying medical equipment and sell online as well. Client can place order online and receive quick delivery,Good place for X-Ray, Scan, ECO and ECG,An excellent diagnostic facility that has expanded beyond radio-diagnostics and now offers the gamut of investigative tests be it Microbiology and Parasitology, Haematology and Chemical Pathology.Access for bedridden and wheelchair bound persons can be challenging for some procedures,Customer friendly and precise diagnostics","[object Object],[object Object],[object Object],[object Object],[object Object],[object Object],[object Object]"
First Delta America Hospital,,,,,fdahospital.org,info@fdahospital.org,Private,"RADIOLOGY,INPATIENT HEALTH CARE,CONCIERGE MEDICINE,MULTI-SPECIALIST OUTPATIENT CLINIC,EMERGENCY & TRAUMA MANAGEMENT,TELEMEDICINE,PHARMACY,LABORATORY,IMMUNIZATION,HEALTH AND LIFESTYLE CLASSES,Ambulance,SLEEP STUDY","Wheelchair-accessible,Comfortable rooms with 24 hours power supply","[object Object],[object Object],[object Object],[object Object],[object Object],[object Object],[object Object]"
St. Joseph's Catholic Hospital,,,,,,stjoseph.catholichospital@yahoo.com,Public,General Hospital services,,"[object Object],[object Object],[object Object],[object Object],[object Object],[object Object],[object Object]"
Capitol Hill Clinic & Hospital,,,,,capitolhillhospitals.com.ng,"info@capitolhillhospitals.com.ng, ccapitolhillclinic@yahoo.com",Private,"General Medicine,Dentistry,Spirometry,Neurology,Pediatrics,Dialysis,Radiology,Specialist Consultation,OCCUPATIONAL HEALTH (OH),Hearing Conservation, Fabrication & Fitting","Providing treatment that is personal and relevant to individual needs of patients,Respecting the rights and dignity of patients, customers and employees,Consciously improving care processes for better service delivery,Fully equipped with the most recent -state-of-the-art medical facilities,Welcome feedback to improve service","[object Object],[object Object],[object Object],[object Object],[object Object],[object Object],[object Object]"
Humanity Hospital,,,,,humanityhospitals.com,info@humanityhospitals.com,Private,"Orthopedics,Specialist Consultation,Physiotherapy,Specific Clinical Services: Antenatal Care (ANC), Child Health, Ear-Nose-Throat, Internal medicine, Immunization,Urology,General Medicine,Surgery,Dermatology,Obstetrics and Gynecology,Radiology,Cardiology,Respiratory Medicine,Diagnostic/Laboratory Services,Pharmacy","24/7 Emergency Services,24 Hours Blood Bank","[object Object],[object Object],[object Object],[object Object],[object Object],[object Object],[object Object]"
Anioma Hospital,,,,,aniomahospital.com,info@aniomahospital.com,Public,"General Surgery,Urology,Laparoscopic Surgery,CT-Scan,Anaesthesia,Radiology,Dermatology,Obstetrics and Gynecology,Internal medicine,General & Family Medicine,Pharmacy","Affordable Services,Neat Environment,Quality Equipment,Surgical Videos: Surgeries are electronic. For this reason, there is a video documentaries of each surgery performed. Patients can have copies of their videos for their own records","[object Object],[object Object],[object Object],[object Object],[object Object],[object Object],[object Object]"
"General Hospital, Ibusa",,,,,,ghibusa@gmail.com,Public,"Surgical Services: General Surgery, Anaethesia,Specific Clinical Services: Antenatal Care (ANC), Immunization, HIV/ AIDS Services, Tuberculosis, Non Communicable Diseases, Family Planning, Hepatitis, Accidents and Emergency, Nutrition,Onsite Laboratory,Onsite Pharmacy,Ambulance Service,Mortuary Service",Affordable Services,"[object Object],[object Object],[object Object],[object Object],[object Object],[object Object],[object Object]"
Ufor Hospital,,,,,www.uforhospital.com,UFOR_HOSPITAL@YAHOO.CO.UK,Private,"General Medical service,Surgery,Obstetrics and Gynecology",Wheelchair-accessible,"[object Object],[object Object],[object Object],[object Object],[object Object],[object Object],[object Object]"
Lana Hospital,,,,,lanahospital.com,info@lanahospital.com,Private,"General Practice,Emergency,Neurology,Surgical Services,Laboratory Service,Radiology,Obstetrics and Gynecology,Pediatric care,Diabetic Care,Antenatal Services,Pahrmaceutical Advice","Putting the patient first,Clean and comfortable environment,Competent and passionate staffing,Innovation and the application of advance technology in medicine","[object Object],[object Object],[object Object],[object Object],[object Object],[object Object],[object Object]"
Central Hospital,,,,,,,Private,"General body treatment,Surgery",,"[object Object],[object Object],[object Object],[object Object],[object Object],[object Object],[object Object]"
General Hospital,,,,,,,Public,Medical Services,,"[object Object],[object Object],[object Object],[object Object],[object Object],[object Object],[object Object]"
Federal Medical Centre (FMC),,,,,fmcasaba.org,info@fmcasaba.org,Public,"Accident and Emergency,Dentistry,Hematology,Patholgy,Radiology,Surgery,Pediatrics,Surgery,Ophthalmology,Physiotherapy,Specific Clinical Services: Center for communicable disease control and reseach, Social Welfare, Family Medicine, Internal Medicine,PHARMACY,NURSING SERVICES,Stores and Supply","SERVICOM,Affordable healthcare Services,Clean and comfortable environment","[object Object],[object Object],[object Object],[object Object],[object Object],[object Object],[object Object]"
Central Hospital,,,,,,info@central-care.org.ng,Public,"Cardiology,Pediatrics,Obstetrics,Gynecology,Physiotherapy,Dentistry,Ophthalmology,Surgery,ENT Departments,Orthopedics & Traumatology,Internal medicine",,"[object Object],[object Object],[object Object],[object Object],[object Object],[object Object],[object Object]"
University of Benin Teaching Hospital (UBTH),,,,,ubth.org,info@ubth.org,Public,"Orthopedics & Traumatology,Radiotherapy & Clinical Oncology,Physiotherapy,Surgery,Radiology,Obstetrics and Gynecology,Pharmacy,Child health,Family medicine,Internal Medicine,Occupational therapy,UBTH paramedic program,Well persons clinic","Fully integrated Accident centre,Fully functional Oxygen production plant to effectively meet the need of the hospital,Facilities for over 900 in-patients,Wheelchair-accessible,Functioning renal dialysis centre, CT scanning centre,Ophthalmic and Oncology complexes,Endoscopy for special investigation,Integrated consultant clinic,Institutionalized private practice building,A transit home for patients relations and friends","[object Object],[object Object],[object Object],[object Object],[object Object],[object Object],[object Object]"
Eseohe Medical Centre,,,,,,andyposki@gmail.com,Private,,,"[object Object],[object Object],[object Object],[object Object],[object Object],[object Object],[object Object]"
Fate Medical Centre,,,,,,,Private,,,"[object Object],[object Object],[object Object],[object Object],[object Object],[object Object],[object Object]"
Eromosele Medical Centre,,,,,,,Private,,,"[object Object],[object Object],[object Object],[object Object],[object Object],[object Object],[object Object]"
Mount Gilead Hospital,,,,,mount-gilead-hospital.business.site, mtgilead2004@yahoo.com,Private,Medical Services,Affordable care using modern technological advances in medicine,"[object Object],[object Object],[object Object],[object Object],[object Object],[object Object],[object Object]"
Edi International Hospital Ltd,,,,,edi-hospital.squarespace.com,,Private,"General Practice,Pediatrics,Obstetrics and Gynecology,Endocrinology,Neurology,Urology,General Surgery,Pediatric Surgery,Orthopedics,Plastics/Burns/Reconstructive Surgery,Dentistry,Physiotherapy,Ophthalmology,Epidemiology,Public health services,Pharmacy,Diagnostic/Laboratory Services,Ambulance Service,Mortuary Service","Dual band DSTV cable entertainment to enable patients recuperate in comfort,Two operating Theatres,A Recovery Room,A Delivery Suit","[object Object],[object Object],[object Object],[object Object],[object Object],[object Object],[object Object]"
Irrua Specialist Teaching Hospital (ISTH),,,,,isth.org.ng,"info@isth.org.ng, irruateachhosp@yahoo.com ",Public,"Emergency Medical Care 24/7,Trauma & intensive care,Diagnosis & Investigation,Medical & Surgical,Mental Health,Rehabitation,Specialised Support Service,Aged Care,Community Service","The vegetation is mixed rain forest and transition Guinea Savanna,ISTH has hundreds of specialist and almost two thousand staff all set for you total health,Affordable, accessible and qualitative promotive, preventive and curative health care services,Engage in research and teaching activities,Serve as a Centre of Excellence for the diagnosis, management and control of Lassa Fever","[object Object],[object Object],[object Object],[object Object],[object Object],[object Object],[object Object]"
Igbinedion University Teaching Hospital,,,,,iuokada.edu.ng,iuthokada@gmail.com,Private,"Medicine,Surgery,Paediatrics,Obstetrics and Gynecology,Dentistry,Physiotherapy,Radiology,Cardiology,Anaesthesia,Community health",A teaching hospital,"[object Object],[object Object],[object Object],[object Object],[object Object],[object Object],[object Object]"
Lily Hospitals,,,,,lilyhospitals.com,"contact@lilyhospitals.com, frontdesk@lilyhospitals.com",Private,"Dermatology,Obstetrics and Gynecology,Audiology,Physiotherapy,Orthopedics,Paediatrics,In-patient care,Fertility,Nutritio and diatetics,Family care,Eye center,Ear-Nose-Throat,Diagnotics,Dental,Cardiology,IVF,Internships for medical doctors, radiographers, optometrists, and pharmacists",Numerous brances in Edo state,"[object Object],[object Object],[object Object],[object Object],[object Object],[object Object],[object Object]"
Bethel Faith Medical Centre,,,,,bethelfaithmedicalcentre.com,bethelfaithmedi2008@gmail.com,Private,"GENERAL PRACTICE,PHARMACY,OPTICAL,LABORATORY,ANTENATAL,EMERGENCY,RADIOLOGY",,"[object Object],[object Object],[object Object],[object Object],[object Object],[object Object],[object Object]"
Michael Memorial Medical Centre,,,,,,,Public,"Neurological,Rehabilitation,Counselling/psychotherapy,Care of the elderly,Half-way home service",State-of-the-art specialist mental health and addiction clinic,"[object Object],[object Object],[object Object],[object Object],[object Object],[object Object],[object Object]"
ISDA HOSPITAL,,,,,,,Private,Full-service healthcare,,"[object Object],[object Object],[object Object],[object Object],[object Object],[object Object],[object Object]"
ST. NICHOLAS HOSPITAL,,,,,saintnicholashospital.com,"info@saintnicholashospital.com, clientservice@saintnicholashospital.com",Private,"Endoscopy,Nursing,Radiology,Orthopaedics & Trauma Unit,Dialysis,Pharmacy,Obstetrics & Gynaecology,Intensive care unit,Neurology",Over 50 years experience in health care services,"[object Object],[object Object],[object Object],[object Object],[object Object],[object Object],[object Object]"
Motayo Hospital,,,,,motayohospitallimited.com,motayo_hospital@yahoo.com,Private,"Dermatology,Nutrition & Dietetics,Neurosurgery,Urology,Otorhinolaryngology,Dentistry,Radiology,Physiotherapy,General Surgery,General Practice,Comprehensive Health Screening,Internal Medicine,Laboratory,Paediatrics,Pre-Employment Medicals,Family medicine,Ophthalmology,Obstetrics & Gynaecology,Domestic Help Screening Test,Routine Health Check","Over three decades wealth of efficient professional services, care and experience,There is enough space for parking right in front of its main building.","[object Object],[object Object],[object Object],[object Object],[object Object],[object Object],[object Object]"
Blooming Care Hospital,,,,,,bloomingcarehospital@gmail.com,Private,"Laboratory,Medical Services","Very clean and safety first,One place to get a quick medical care a good rate. Also offer HMO services,Unique in it's own style. Caring doctor and friendly nurses","[object Object],[object Object],[object Object],[object Object],[object Object],[object Object],[object Object]"
Isioma Hospital,,,,,,isiomahospital@yahoo.com,Private,"Pediatrics Services: Neonatology,Obstetrics & Gynaecology,Surgical Services: Ophthalmology, General Surgery, Orthopedic Surgery, Urology,Medical Services: Gastroenterology, Hematology, Endocrinology, Neurology, Infectious Diseases, Family Medicine,Special Clinical Services: Antenatal Care (ANC), Immunization, HIV/ AIDS Services, Non Communicable Diseases, Family Planning, Communicable Diseases, Hepatitis, Child Survival, Accidents and Emergency, Nutrition, Maternal and newborn care,Onsite Laboratory,Onsite Pharmacy",Facility Level: Isioma Hospital is a Secondary Health Care Centre,"[object Object],[object Object],[object Object],[object Object],[object Object],[object Object],[object Object]"
"General Hospital, Lagos Island",,,,,,,Public,"General Medical service,Outpatient Services,Surgery,Obstetrics & Gynaecology,Paediatrics,Emergency Care,Ophthalmology,Psychiatry,Dermatology,Neurology,Endocrinology,Urology,Dentistry,Dietetics and Nutrition,ENT radiological services,Laboratory Service","1st premier general Hospital in Nigeria,Wheelchair-accessible,Free Parking is very limited, but there is park n pay for N500 negotiable,Government owned hospital. They have qualified and some of the best professionals in medicine. Official documents and medical tests are conducted here for purposed of education, job and travel,A seemingly decent hospital which is pretty accessible and has a calm environment. Its neat and well maintained but the facilities need an upgrade,You can get the best and any medical help at the general hospital but you have to be very patient as there are limited hands doing the job over there,Accessible from CMS or TBS","[object Object],[object Object],[object Object],[object Object],[object Object],[object Object],[object Object]"
Ajeromi General Hospital,,,,,ajeromigeneralhospital.com,"support@ajeromigeneralhospital.com, info@ajeromigeneralhospital.com",Private,"DENTAL CARE DEPARTMENT,ANTE-NATAL, POST-NATAL CLINIC: Pregnancy tests ante-natal examinations smear tests (by appointment only) gynecological assessments referral to hospital services as appropriate Post-natal examinations.,DIABETES CLINIC: Investigations of - glucose level in blood urine (for protein, glucose, acetone) blood pressure Weight,MEDICAL CONSULTANT CLINIC: Medical consultation,GENERAL OUTPATIENT CLINIC: Anticoagulant consultation.,RADIOLOGY DEPARTMENT: Radiological investigations,SURGICAL CONSULTANT CLINIC: Surgical consultation,FAMILY PLANNING CLINIC: Counseling, Immunizations, Application of IUD/ Family planning measures,VOLUNTARY COUNCELLING AND TESTING CLINIC: Counseling and Testing of patients for HIV, Treatment / Management of HIV cases,DOTS CLINIC: Treatment for patients with Tuberculosis,EYE CLINIC: Checking of Central visual filed,MEDICAL RECORDS/INFORMATION DEPARTMENT: Medical information Statistics,ECG (ELECTROCARDIOGRAM) DEPARTMENT: ECG recording,OPHTHALMIC CLINIC: Eye care services provided by Ophthalmologist,CATERING DEPARTMENT: Meals served,BLOOD INVESTIGATIONS AND TESTS: OGTT (Oral Glucose Tolerance Test) lactose Tolerance blood investigation Other blood investigations,PAEDIATRIC (CHILDREN)  CLINIC: Pediatric consultation for children,PHARMACY DEPARTMENT: Supply of drugs and treatment materials","It's a state hospital, with Nigerian-level health care, it needs major improvement in terms of equipment, and infrastructure, not the best but can be, they have excellent doctors and nurses,Good unit for maternal and child care,A Service delivery committee in conjunction with a quality Improvement team and other allied committees are on ground working hard together to ensure great standards,Accepts Credit Cards","[object Object],[object Object],[object Object],[object Object],[object Object],[object Object],[object Object]"
"General Hospital, Ikorodu",,,,,generalhospitalikorodu.org,"ghikorodu@yahoo.com, info@generalhospitalikorodu.org",Public,"Dental DEPARTMENT,Medical Laboratory,General Out-patient Services (GOPD),Medical Out-patient Department (MOPD),Mortuary,Maternal & Child Center,Obstetrics and Gynaecology,Ophthalmology,Paediatrics,Physiotherapy,Radiology,Orthopedics,Surgery,Nursing Services,Ambulance Service","The hospital has state of the art equipments like Anaesthetic Machines, Blood Bank, X-ray Machines,The hospital is quite affordable and patient-friendly providing free medical service for all emergencies for the first 24 hours,Free medical care for the destitute and physically challenged, children below 12 years and adults above 60 years,A good hospital with hard working staff. But I must confess I only had dealings with the Maternity department. The Midwives were gentle and thoughtful. I had issues with paying some cash because of the short of human resource and it tool like forever to pay the fees I needed to pay for,The hospital was so big, neat, clean and very attractive. Enough trained Doctors, Nurses and Lab. Scientists. I love their services to patients and the way they issues like emergency cases. Enough parking space for staffs cars, patients and hospital' ambulance,I passed by this place, it's a government owned hospital with a large area of land, adequate spaces for car parks, looks clean and neat, big and very attractive. There is ATM provision right in the hospital. It serves the people of ikorodu. It's is accessible","[object Object],[object Object],[object Object],[object Object],[object Object],[object Object],[object Object]"
Lagos State University Teaching Hospital (LSUTH),,,,,lasuth.org.ng,enquiry@lasuth.org.ng,Public,"CH&PHC,INTENSIVE CARE UNIT,Radiology,Laboratory Service,MEDICINE,Ear, Nose & Throat,Family Medicine,Anaesthesia,Internal Medicine,National Health Insurance Scheme(NHIS),Ophthalmology,Obstetrics & Gynaecology,Surgery,Psychiatry,QUALITY ASSURANCE,HAEMATOLOGY & BT,Nursing Services,Paediatrics,Dietetic,Dentistry,Pharmacy,Physiotherapy,Medical Social Services","Despite LASUTHâ€™s relatively young age as a Teaching Hospital, evidence abounds that it is one of the foremost teaching hospitals in West Africa in terms of the high-quality services rendered by highly skilled professionals using state-of-the-art equipment","[object Object],[object Object],[object Object],[object Object],[object Object],[object Object],[object Object]"
Orile Agege General Hospital,,,,,,,Public,"Medical,Surgical,Child and maternal health,Nursing care,Pharmaceuticals,Diagnostic/Laboratory Services,Rehabilitative medicine,Eye,ENT (Ear, Nose and Throat),Physiotherapy,Radiology,GOPD,MOPD,SOPD,Dental,Obstetrics & Gynaecology,Medical Social Welfare","I have been to many General hospital in Lagos but Orile Agege is one of the best in terms of infrastructures, Doctors and nurses service and they make use of Internet access to attend to all patients,The hospital is equipped with modern facilities, experienced core medical and non-core medical personnel to deliver excellent medical services to her patients,It's fairly okay. The usual Nigerian standard of public facility. Usually crowded. Go early so you can leave early,Stressful like any other public or general hospitals but effective,It is a secondary health facility. The compound of the hospital is not spacious so they have limited space for car park which mostly reserved for staffs of the hospital,Lagos State Government General Hospital with a Class known for being the saviour of Pregnant Women & Children where the Low-income earners are highly dominated","[object Object],[object Object],[object Object],[object Object],[object Object],[object Object],[object Object]"
Epe General Hospital,,,,,,epegeneralhospital2015@gmail.com,Public,"General health care,Pediatric care,Dental,LABORATORY,Medicine,Mortuary Service,Obstetrics & Gynaecology,Pharmacy,Physiotherapy,Radiology,PMTCT,Surgery,VCT",,"[object Object],[object Object],[object Object],[object Object],[object Object],[object Object],[object Object]"
The Synapse Magnolia,,,,,synapseservices.org/our-facilities-magnolia.html,synapsemagnolia@synapseservices.org,Private,"Substance misuse services/addiction services,Neuropsychiatry,Women's health,Child and adolescent mental health,Eating disorders,Personality Disorders Service,Deafness and mental health services,Learning Disabilities,Early intervention psychosis program,Attention Deficit Hyperactivity Disorder (ADHD),Acquired brain injury,Autistic spectrum disorders","Activity Programmes such as book club, music occupations, gardening, puzzles and card games, religious services,24 hours professional nursing care, private bedrooms most with en-suite; with laundry services, nurse call system in all rooms,Latest Technologies: The Repetitive Transcranial Magnetic Stimulation Machine (rTMS), is used for the treatment of drug addiction and/or psychotherapy,A large range of food menus and catering which respond to every special dietary requirements,Long stay supported accommodation","[object Object],[object Object],[object Object],[object Object],[object Object],[object Object],[object Object]"
Gbagada General Hospital,,,,,gbagadagh.org.ng,info@gbagadagh.org.ng,Public,"Radiology,Cardiology,Psychiatry,Ophthalmology,Urology,Dermatology,Pathology/Laboratory Services,Medicine,Endocrinology,Obstetrics & Gynaecology,Dental Care,Orthopedics,Oral & Maxillofacial","General hospital in the suburbs of Lagos mainland, given that its Lagos, its a cut above the average. Very accessible, ample parking and good roads into and out the area,Gbagada General hospital is a state owned hospital by the Lagos state government. It is situated at the heart of Gbagada,Gbagada general hospital provides care for the resident and outsider as well. It has a large Accident and Emergency unit. The parking space is wide. They are trying within their capacity. However, more nurses and Doctors need to be employed. They are chewing more than they can bite. The Medical director need fund to make their a better place,Trees are planted around the facility and close to the car park where visitors can relax,Experienced medical personnel, but all over worked as the number if patients they attend to surpasses their human capacity.","[object Object],[object Object],[object Object],[object Object],[object Object],[object Object],[object Object]"
Ifako Ijaiye General Hospital,,,,,,,Public,"Laboratory,Medicine,Obstetrics and Gynaecology,Paediatrics,Pharmacy,Radiology,Surgery,Orthopedics,Eye Care,Dental Care","The doctors, nurses and the care giver are highly experienced to attend to all kinds of medical issues. The drugs and medical supplies are cheaper here,The major challenge is the operations, long queues to get bills, make payment, do test and get drugs. There is also limited parking spaces especially during the day,The hospital is too small for the volume of request and patients that comes to the hospital,Good service but needs to work on communication and attendance. Most of the session are not fully operated,A contemporary art building and construction hospital for the Ifako Jaye Ogba community and it's suburbs","[object Object],[object Object],[object Object],[object Object],[object Object],[object Object],[object Object]"
MariGold Hospital,,,,,marigoldhospital.ng,info@marigoldhospital.ng,Private,"Emergency Medicine,Critical Care Unit/ICU,Surgery,Health accessment clinic,Paediatrics,Neurology & Dialysis,Women's health,Medicine,Diagnotics,Ambulance Service,Pain Clinic,Physiotherapy & Rehabilitation,Oncology,Day case surgery,Endoscopy,Burns & Reconstructive surgery,C-ARM","They attend swiftly to emergencies,They have polite and courteous workers","[object Object],[object Object],[object Object],[object Object],[object Object],[object Object],[object Object]"
Cottage Medical Hospital,,,,,cottagemedicare.com.ng,"care@cottagemedicare.com.ng, cottagemedicals@gmail.com",Private,"General medical care,Infertility treatment,Health screening,Maternity Care,Surgery,Admission facility,Ultra-sound scan,Laboratory Service,Medical Checkup,Gynae consultaton & treatment,Pharmacy",,"[object Object],[object Object],[object Object],[object Object],[object Object],[object Object],[object Object]"
Regis & Reina Hospital,,,,,regisandreina.com,info@regisandreina.com,Private,"Ultrasound scans,MRI scans,CT scan,X-ray,Medical Services,Diagnotics","Regis and Reina diagnostics is a center you can trust for your laboratory investigations and other health checks. The organization, the professionals, and the receptionists are good at what they do","[object Object],[object Object],[object Object],[object Object],[object Object],[object Object],[object Object]"
Mobihealth,,,,,mobihealthinternational.com,"mobihealth4u@gmail.com, bec2000ng@yahoo.com",Private,"Telehealth Services,Digitalization and EMR,AI Diagnostic Devices,Lab & Radiodiagnostics,Home Health,Retail Pharmacy,Trainings,Dermatology,Dentistry,Cardiology,Gynecology,Oncology,INTEGRATED TELEHEALTH CLINICS","24/7 video consultation is available, Now there is no need to wait in the queue to consult a doctor,Make bookings online for diagnostics tests and consult a doctor for early diagnosis and get a timely medical prescription,Have access to over 100k doctor and get the best advice for your health,Mobihealth offers you free referrals","[object Object],[object Object],[object Object],[object Object],[object Object],[object Object],[object Object]"
Royal Specialist Hospital,,,,,royalspecialisthospital.com,info@royalspecialist.com,Private,"Dental care,Immunization,Internal Medicine,Laboratory Services,Obstetrics & Gynecology,Paediatrics,Surgery","Friendly environment and welcoming staff!,Well equipped hospital,Wheelchair-accessible","[object Object],[object Object],[object Object],[object Object],[object Object],[object Object],[object Object]"
SYNAPSE AZALEA,,,,,azaleaservices.org,synapseazaleaunit@synapseservices.org,Private,"Adult mental health programs,Substance use disorder treatment programs,Trauma & stress related psychological problems,Child and Adolescent mental health,School-based mental health,Counseling/Psychotherap,Psychological assessment","Friendly Environment,Best Professionals: highly trained and qualified team of mental health professionals who are committed to provide the best medical service and post discharge follow up and care for our patients.,Latest Technologies: The Repetitive Transcranial Magnetic Stimulation Machine (rTMS), is used for the treatment of drug addiction and/or psychotherapy,Newest Branch: Synapse Azalea is the newest branch of Synapse services, the centre of psychological Medicine (the largest private provider of mental health care services in West Africa)","[object Object],[object Object],[object Object],[object Object],[object Object],[object Object],[object Object]"
Synapse Mustard Centre,,,,,synapseservices.org/our-facilities-mustard.html,synapsemustardunit@synapseservices.org,Private,"Substance misuse services/addiction services,Neuropsychiatry,Women's health,Child and adolescent mental health,Eating disorders,Personality Disorders Service,Deafness and mental health services,Learning Disabilities,Early intervention psychosis program,Attention Deficit Hyperactivity Disorder (ADHD),Acquired brain injury,Autistic spectrum disorders","Activity Programmes such as book club, music occupations, gardening, puzzles and card games, religious services,24 hours professional nursing care, private bedrooms most with en-suite; with laundry services, nurse call system in all rooms,Latest Technologies: The Repetitive Transcranial Magnetic Stimulation Machine (rTMS), is used for the treatment of drug addiction and/or psychotherapy,A large range of food menus and catering which respond to every special dietary requirements,Long stay supported accommodation","[object Object],[object Object],[object Object],[object Object],[object Object],[object Object],[object Object]"
Supreme Vision Eye Clinic,,,,,sveyeclinic.com,"supremevision2004@gmail.com, info@sveyeclinic.com",Private,"Comprehensive Eye Care,Ocular Pathologies Diagnosis,Contact Lens Dispensing,Binocular vision disorders treatment/ Vision therapy,Low vision management,Optical lens dispensing,Eye Surgery co-managment,Glaucoma and Dry eye management,Paediatric and geriatric optometry,Corneal and external diseases management,Full optical services","The best eye clinic of international repute,There are very few health care facilities with such exceptional customer care. I was made to feel at home. Eye care service was prompt and efficient. I would highly recommend the eye clinic to anyone, anytime,Excellent eye and patient care delivery. Also well equipped and a wonderful training ground for Optometrists on clinical practice,Excellent customer service and professional touch comes to mind as you hear Supreme Vision Eye clinic. Love them,Supreme vision eye clinic, besides its clinical services to the public, has been a point of clinical training to a handful of young health professionals. It has brought smiles to our hearts","[object Object],[object Object],[object Object],[object Object],[object Object],[object Object],[object Object]"
Living Stream Hospital,,,,,,,Private,General Health care,,"[object Object],[object Object],[object Object],[object Object],[object Object],[object Object],[object Object]"
University of Abuja Teaching Hospital,,,,,uath.gov.ng,info@uath.gov.ng,Public,"In-Patient,Pharmaceutical,Mobile Clinic,Social Welfare,Out-Patient,Laboratory,Endoscopy,Radiological,Nursing,Anaesthetical",,"[object Object],[object Object],[object Object],[object Object],[object Object],[object Object],[object Object]"
Our Lady of Fatima Catholic Hospital,,,,,,support@olfcatholichospital.com,Private,"Radiology,Physiotherapy,Surgical Services: General Surgery,Special Clinical Services: Antenatal Care (ANC), Immunization, HIV/ AIDS Services, Tuberculosis, Non Communicable Diseases, Communicable Diseases, Hepatitis, Accidents and Emergency,Ambulance Service,Onsite Imaging,Onsite Laboratory,Onsite Pharmacy,Mortuary Service",Facility Level: Our Lady Of Fatima Catholic Hospital ( Bwari ) is a Secondary Health Care Centre,"[object Object],[object Object],[object Object],[object Object],[object Object],[object Object],[object Object]"
Silver- Fountain Medical Center,,,,,silverfountainng.com,info@silverfountainng.com,,"General Surgeries,Diagnostic,Obstetrics & Gynaecology,Wellness services,Medical Consulting,Laboratory,Maternity Care","First and only hospital along Umaru Musa Ya'radua Express road formerly known as Airport road, before entering into the main city. Silver-Fountain Medical Centre (REHOBOTH) is located at Kukuaba Abuja, Opposite Kushingoro, Along Airport Road,Silver-Fountain Medical Center facilitates medical treatment in Germany and Israel where necessary,The Medical Director is German trained Surgeon versed in Accident Surgery and Colo-rectal Surgery and has accumulatively post-qualification experience of well over 22 years","[object Object],[object Object],[object Object],[object Object],[object Object],[object Object],[object Object]"
Abaji General Hospital,,,,,,,Public,"Out-Patient,Obstetrics & Gynaecology,Laboratory,Pharmaceutical",,"[object Object],[object Object],[object Object],[object Object],[object Object],[object Object],[object Object]"
Gwarinpa General Hospital,,,,,,,Public,"Immunization and Vaccines,Accident and Emergency services,General Out-patient,General surgery and Optometry,Obstetrics & Gynaecology","The parking lot is big enough for the number of car owners patronising the hospital.,Fair hospital as far as services. Staff are knowledgeable. Cash-only policy enables corruption and ordering of unnecessary procedures. They hate to write any medical orders on paper for obvious reasons.,Community government hospital for Gwarinpa District of the Federal Capital Territory, Abuja.,Easy to access via Google map and also if well described by anyone who knows the place,Wheelchair-accessible","[object Object],[object Object],[object Object],[object Object],[object Object],[object Object],[object Object]"
Nisa Premier Hospital,,,,,nisa.com.ng,info@nisa.com.ng,Private,"Family & specialty Medicine,Fertility & Genetics,Gynecology,Child Clinic,Imaging & Radiology,Surgery,Paediatrics & Neonat0logy,Dental Clinic,Eye Clinic,Accident and Emergency,Maternity,Nisa VIP Clinic","Nisa Premier Hospital is one of the best private hospitals located in Abuja. They have good doctors who take their time to talk to patients,Nisa is king for professionalism, transparency and excellent patient empathy,Patients are respected, excellent medical services rendered.,The Doctors are very professional and the nurses are nice. Quick medical response is priority to them","[object Object],[object Object],[object Object],[object Object],[object Object],[object Object],[object Object]"
Synapse Japonica,,,,,japonica.synapseservices.org,admin.japonica@synapseservices.org,Private,"Drug Addiction Treatment And Rehabilitation,Nicotine Clinic,General Adult Psychiatry Service,Child And Adolescent Mental Health,Adult And Child ADHD Treatment,Employee Assisted Program (EAP)","At Synapse Japonica, our goal is to ensure that all individuals who come in contact with our services experience wholesome and full recovery from mental illnesses and addiction","[object Object],[object Object],[object Object],[object Object],[object Object],[object Object],[object Object]"
University of Port Harcourt Teaching Hospital (UPTH),,,,,upthng.com,"info@upthng.com, support@upthng.com",Public,"Renal Dialysis unit,Ophthalmology,Anaesthesiology,HAEMATOLOGY & BT,Intensive care unit,Internal Medicine,Nuclear medicine,Family Medicine,Dentistry,Obstetrics & Gynaecology,Child Dental care,Burns and plastic unit,Paediatrics,Orthopedics,Neuropsychiatry,Pharmacy,Oral & Maxillofacial,Dialysis,Urology,Otorhinolaryngology,Radiotherapy & clinical oncology,Lifestyle medicine clinic,Preventive dentistry,Restorative dentistry","The University of Port Harcourt Teaching Hospital treats well over 400,000 Out-patients per annum, over 10,000 In-patients per annum and over 3000 surgeries per annum","[object Object],[object Object],[object Object],[object Object],[object Object],[object Object],[object Object]"
Maryland Healthcare Hospital,,,,,marylandhealthcare.com.ng,,Private,"General Medicine,Geriatrics Care,Health and Wellness,Laboratory,Paediatrics (Child) Care,Accident and Emergency,Pharmaceutical,Consultation and Planning","Identifies as women-led,Wheelchair-accessible,Maryland Health Care offers a wide range of medical services and its equipped with medical laboratory, maternity facilities, surgical theater, ambulance, etc. The clinic also provides health care services for various HMOs in Nigeria,24 hours service with reliable medical personnel","[object Object],[object Object],[object Object],[object Object],[object Object],[object Object],[object Object]"
Mediethics Medical solutions LTD,,,,,mmshealthcare.ng,"ask@mmshealthcare.ng, healthwisehospital@gmail.com",Private,"GeriCare: Home based doctor's visit, Home Nursing care, Home Diagnostics Service, Physiotherapy and rehabilitation, 24/7 Emergency call Services, Chronic disease management,Family Medicine,Internal Medicine,Surgery,Obstetrics & Gynaecology,LABORATORY/ INVESTIGATIVE MEDICINE,Occupational medicine,PAEDIATRICS, CHILD HEALTH & IMMUNIZATION",,"[object Object],[object Object],[object Object],[object Object],[object Object],[object Object],[object Object]"
New Mile One Hospital,,,,,,,Private,,Saving lives is their priorities,"[object Object],[object Object],[object Object],[object Object],[object Object],[object Object],[object Object]"
Onne Medical Centre,,,,,,samudonsac@hotmail.com,Private,,Onne Medical Centre is a health organization established with the aim of providing medical assistance in Onne Community,"[object Object],[object Object],[object Object],[object Object],[object Object],[object Object],[object Object]"
Gbeye Hospital and Maternity,,,,,gbeyehospital.com,info@gbeyehospital.com,Private,"Emergency Services,Medical Counseling,Premium Healthcare,Nutrition Laboratory,Medical diagnostics,X-ray ECG,Ultra sound scan,Medical advisory,Morgue,Training of medical personnel","Procurement and supplies of hi-tech medical equipment and appropriate consumables; installation, maintenance and repairs of hospital equipment","[object Object],[object Object],[object Object],[object Object],[object Object],[object Object],[object Object]"
SAVE A LIFE Mission Hospital,,,,,savealifehospital.com,info@savealifehospital.com,Private,"Kidney: Lithotripsy, Dialysis, Transplant, Laparascopic Renal Surgery,Infertility: Gynae Surgeries, IVI, IVF/ICSI, Surrogacy, Sex Selection,Obesity/Gastro: Bariatric Surgery, Endoscopy, Laparoscopic Intestinal Tumor Resection,Heart: Angiogram, Angioplasty, Pace Maker Procedure, Valvular Replacement, Heart Surgeries,Spine/Orthopedic: Minimally invasive spine surgery (MISS), Painless and minimal Knee Replacement Surgery, Anatomical hip replacement, surgery, Fixation Surgery for fractures, Arthroplasty,Prostrate Bladder: Laser Laser prostatectomy, Urethroplasty, cystoscopic resection of bladder tumor, Percutaneous nephrolithotomy,Others: Intensive care management, Neonatal Care, Preterm Care with ventilator C-PAP","Savealife Mission Hospital is a 150 bedded multispecialty hospital equipped with the latest technology in Medicine. We cheer a clear vision of reversing medical tourism towards Africa,It is an ultra modern facility equipped to cater for all cases in gynaecology, urology, orthopedic/spine, gastro enterology, ENT, cardiology and ophthalmology, etc, using the latest technology in medicine. It has comfortable standard, deluxe, executive and presidential suites, delivering hospitality at its best,The vision of the hospital is to make Nigeria a global Healthcare destination through the provision of world-class healthcare services powered by superior technology in medicine","[object Object],[object Object],[object Object],[object Object],[object Object],[object Object],[object Object]"
First Rivers Hospital,,,,,firstrivers.com,"info@firstrivers.com, martinnezus@yahoo.com",,"With modern equipment and through skilled and efficient staff, FRH is committed to the provision of compelling quality timeless medical services to patients","Our objective is to maximally exploit medical sciences in the art of health management and preservation of life with regards to The Ultimate Intelligence,Our core values are to offer Fast medical interventions, maintain high professional Integrity, Respect the person and right of our patients, observe all Safety considerations in the process of task execution, and employ a Team approach to health management,The new face of First Rivers Hospital has really changed alot of things, friendly, dedicated and professional staffs, latest modern medical facilities, neat, safe & serene environment and very quick responses to emergencies. One of the best hospitals in the Garden City,Pretty organized. The computerized operations makes for quick turn around. The staff were courteous. Service was quick,Fair service delivery, could do better in terms of reduced waiting time","[object Object],[object Object],[object Object],[object Object],[object Object],[object Object],[object Object]"
Anchor Hospital,,,,,,,Private,,Anchor Hospital is among the best health centres with durable and skilled staff making use of the foremost medical facilities in carrying out treatment,"[object Object],[object Object],[object Object],[object Object],[object Object],[object Object],[object Object]"
Rivers State University Teaching Hospital (RSUTH),,,,,rsuth.ng,,Public,"Ear, Nose, Throat (ENT),Pharmacy,Paediatrics,FAMILY MEDICINE,OPHTALMOLOGY/LENS,Dental Care,Internal Medicine,Radiology,Obstetrics & Gynaecology,Patholgy,Catering,Emmergency and Accident","Rivers State University Teaching Hospital formally Braithwaite Memorial Specialist Hospital (BMSH) is a government owned hospital, was named after Eldred Curwen Braithwaite, a British doctor and a pioneer of surgery. It is located in Old GRA, Rivers State a neighbourhood of Port Harcourt and is operated by Rivers State Hospital Management Board,Fairly great service. The nurses are a bit calm and attend promptly to patients,The registration/folder opening process is not really stressful,The ambience is great with nice structures and good facilities. The compound is generally neat and there's a spacious parking lot and security system","[object Object],[object Object],[object Object],[object Object],[object Object],[object Object],[object Object]"
Alex Ekwueme Federal University Teaching Hospital Abakaliki (AEFUTHA),,,,,aefutha.gov.ng,"enquiries@aefutha.gov.ng, admin@aefutha.gov.ng",Public,"Paediatrics,Laboratory Service,Radiology,General Surgery,Dentistry,Pharmacy,Obstetrics & Gynaecology,Ophthalmology,Nursing Services,Training & Education: School of Nursing, School of Midwifery, Internship training, Residency Training",,"[object Object],[object Object],[object Object],[object Object],[object Object],[object Object],[object Object]"
Christ The King Hospital,,,,,,,Private,"Paediatrics,Gynecology,Training of medical personnel",,"[object Object],[object Object],[object Object],[object Object],[object Object],[object Object],[object Object]"
National Obstetric Fistula Centre,,,,,nofic.org.ng,contact@nofic.org.ng,Public,"Repair of Obstetric Fistula,Repair of Uterine Prolapse,Gynaecological Surgeries,Invitro Fertilization (IVF),Renal Dialysis,Family Planning,Physiotherapy,Laboratory and Radiological services,Obstetric Fistula Rehabilitation & Vocational Skill Acquisition,Breast & Cervical, and Prostate Cancer Screening,Antenatal & Postnatal Services,Training of Doctors & Paramedicals in Reproductive Health,Community Awareness Campaign, Advocacy & Resource Mobilization","The National Obstetric Fistula Centre, Abakaliki (NOFIC) was established in 2011 by the Federal Government of Nigeria as the first national health facility for the treatment, rehabilitation, research, reintegration of and training in obstetric fistula mainly and related reproductive health issues","[object Object],[object Object],[object Object],[object Object],[object Object],[object Object],[object Object]"
Ebonyi State University Teaching Hospital (ESUTH),,,,,,,Public,,"The General Hospital caters for everyone in her capacity,The mission of the hospital is to ensure the provision of safe, quality, affordable, adequate, equitable and accessible health services to all people in Nigeria","[object Object],[object Object],[object Object],[object Object],[object Object],[object Object],[object Object]"
General Hospital Onueke,,,,,,,Public,"Medical Services: Infectious Diseases, Family Medicine,Surgical Services: General Surgery,Pediatrics Services: Gastroenterology,Ambulance Service,Special Clinical Services: Antenatal Care (ANC), Immunization, HIV/ AIDS Services, Tuberculosis, Non Communicable Diseases, Family Planning, Nutrition, Health Education and Community Mobilization, Maternal and newborn care,Obstetrics & Gynecology Services: Gynecology,Onsite Laboratory,Mortuary Service",Facility Level: General Hospital Onueke is a Secondary Health Care Centre,"[object Object],[object Object],[object Object],[object Object],[object Object],[object Object],[object Object]"
Mater Misericordiae Hospital,,,,,matersomn.org,sonafikpo@yahoo.com,Private,,"It is a hospital owned and managed by the Catholic diocese of Abakaliki,It has a very large compound that houses the Nursing school, mortuary and Hospital. Mater hospital is big and well fenced with all the facilities needed within the compound.","[object Object],[object Object],[object Object],[object Object],[object Object],[object Object],[object Object]"
Ezzamgbo General Hospital,,,,,,,Public,Health & Medical,,"[object Object],[object Object],[object Object],[object Object],[object Object],[object Object],[object Object]"
Nakowa Specialist Hospital,,,,,,,Private,"Medical Services,Pediatric Care Services,General Surgery",,"[object Object],[object Object],[object Object],[object Object],[object Object],[object Object],[object Object]"
Borno Medical Centre,,,,,,,Public,"Medical Care,Gynacology,Oncology,Surgical Services",,"[object Object],[object Object],[object Object],[object Object],[object Object],[object Object],[object Object]"
Kanem Hospital and Maternity,,,,,,,Private,,,"[object Object],[object Object],[object Object],[object Object],[object Object],[object Object],[object Object]"
Royal Specialist Hospital,,,,,royalspecialisthospital.com,info@royalspecialist.com,Private,"Dental care,Immunization,Internal Medicine,Laboratory Services,Obstetrics & Gynecology,Paediatrics,Surgery","Friendly environment and welcoming staff!,Well equipped hospital,Wheelchair-accessible","[object Object],[object Object],[object Object],[object Object],[object Object],[object Object],[object Object]"
State Specialist Hospital,,,,,,,Public,,"The #1 State owned government hospital with specialist medical personnels in different fields,This is a standard and well equipped with a modern high-tech equipment to be used for different specialised medical treatment's.this Hospital have enough send an experience doctors for Different kind of treatment and they are doing the rooms are well equipped and decorated for better ventilation","[object Object],[object Object],[object Object],[object Object],[object Object],[object Object],[object Object]"
Royal Specialist Hospital,,,,,royalspecialisthospital.com,info@royalspecialist.com,Private,"Dental care,Immunization,Internal Medicine,Laboratory Services,Obstetrics & Gynecology,Paediatrics,Surgery","Friendly environment and welcoming staff!,Well equipped hospital,Wheelchair-accessible","[object Object],[object Object],[object Object],[object Object],[object Object],[object Object],[object Object]"
University of Maiduguri Teaching Hospital (UMTH),,,,,umth.org.ng,info@umth.org.ng,Public,"Anaesthesia,Chemical Pathology,Community Medicine,Dental Surgery,Ear Nose and Throat (ENT),General Out Patient Department (GOPD),Haematology,Histopathology,Immunology,Internal Medicine,Radiology,Paediatrics, Surgery,Obstetric & Gynaecology,Orthopaedics,Opthalmology,Pharmacy,Accident & Emergency (A&E)","The University of Maiduguri Teaching Hospital is an agency/parastatal under the Federal Ministry of Health,The biggest hospital in the city, neat and spacious, only stress is finding out places, distances between places is much,It's the only teaching hospital in Maiduguri and they render efficient medical services,One of the major public tertiary healthcare centres in the North-East Nigeria that provide professional healthcare and medical services","[object Object],[object Object],[object Object],[object Object],[object Object],[object Object],[object Object]"
NEW FOUNDATION HOSPITAL,,,,,,,Private,,This hospital have gotten a new look that is very commendable,"[object Object],[object Object],[object Object],[object Object],[object Object],[object Object],[object Object]"
First Fertility Hospital,,,,,firstfertilityhospital.com,,Private,"We are a specialized gynecologist and obstetric hospital set up to care for reproductive health needs of women which include infertility challenges, endoscopic surgeries and the management of high risk pregnancies in women","Its a fertility hospital where IVF is done and its a mother and child hospital as well,They are good team players, make their patients comfortable and they more than deliver on the services they have been setup to deliver","[object Object],[object Object],[object Object],[object Object],[object Object],[object Object],[object Object]"
Madonna Hospital,,,,,madonnahospitalmakurdi.com.ng,info@madonnahospitalmakurdi.com.ng,Private,"Out-Patient,Paediatrics: The Paediatrics Department has two Neonatal wards (in-born and out-born) equipped with Photo-Therapy stands and 8 Incubators There are also two Paediatric Wards with 6 beds each. The department provides child welfare services including Immunization and growth monitoring,Maternity: The unit has an Obstetrics/Gynaecology ward with Six (6) beds, labour Room equipped with neonatal resuscitation equipments,GENERAL WARDS: The four (4) General Wards have Six (6) Beds each. All the Wards are connected to Cable TV,PRIVATE WARDS: There are two fully air-conditioned rooms with cable TV connectivity and refrigerator,VIP WARDS: There are Nine (9) well furnished, Air-conditioned rooms with independent Cable TV and a refrigerator,Radiology,Laboratory: The laboratory is equipped with state of the art equipments in the running of Haematology, Chemistry, Immunology, Microbiology and Parasitology. There is an air-conditioned waiting room with Cable TV where patients can relax while waiting for their results,Physiotherapy: Physiotherapy services is available in the facility,Pharmacy: There are two well stocked Pharmacies (Main and Mini). It has a sterile compounding unit attached to it,Mortuary: The hospital has a Mortuary for morgue services,Theatre: The MAJOR THEATRE is equipped with Diathermy Machines, Electro-hydrolyic Operating Table; the latest Model of Anaesthetic Machine with Ventilator, Vaporizer, and Patient Monitors. The MINOR THEATRE is used for Minor Procedures. Doctors Consulting Room. Endoscopy Suite,LAUNDRY UNIT: The hospital has its own laundry unit to ensure clean patientâ€™s linens,POWER SUPPLY: The hospital is connected to the public power supply through a dedicated Transformer. It has a 114, 13 KVA Sound Proof Generator and 9KVA Gasoline generator with solar inverter generator installed at various blocks of the hospital to guaranteeing 24hrs power supply","Madonna hospital, a subsidiary of Madonna Health Services Limited is located in the heart of Makurdi the Benue State Capital,Madonna hospital is also a GLOBAL FUND site for free comprehensive HIV/AIDS services. It is a National Health Insurance Scheme (NHIS) accredited facility for Primary and Secondary services in addition to having Corporate Clients and Private Health insurance Schemes","[object Object],[object Object],[object Object],[object Object],[object Object],[object Object],[object Object]"
General Hospital,,,,,,,Public,,"The General Hospital caters for everyone in her capacity. The mission of the hospital is to ensure the provision of safe, quality, affordable, adequate, equitable and accessible health services to all people in Nigeria","[object Object],[object Object],[object Object],[object Object],[object Object],[object Object],[object Object]"
Benue State University Teaching Hospital (BSUTH),,,,,bsuth.org.ng,inquiries@bsuth.org.ng,Public,"Heamodialysis,Endoscopy,Echocardiography,CT scanning,Medical care services,Training of medical students",Received accreditation from the Medical and Dental Council of Nigeria to be a suitable place for the training of medical students,"[object Object],[object Object],[object Object],[object Object],[object Object],[object Object],[object Object]"
"General Hospital, Vandekeiya",,,,,,,Public,,"The General Hospital caters for everyone in her capacity. The mission of the hospital is to ensure the provision of safe, quality, affordable, adequate, equitable and accessible health services to all people in Nigeria","[object Object],[object Object],[object Object],[object Object],[object Object],[object Object],[object Object]"
St. Daniels Hospital,,,,,saintdanielhospital.business.site,stdanielhospital@yahoo.co.uk,Private,"Medical,Surgical,Laboratory,Ultrasound,X-Ray,Home care for elderly and aged patients with chronic illnesses",Wheelchair-accessible,"[object Object],[object Object],[object Object],[object Object],[object Object],[object Object],[object Object]"
Myom Hospital,,,,,,,Private,"Medical Services: Hematology,Surgical Services: General Surgery, Neuro-Surgery,Pediatrics Services: Gastroenterology, Pulmonology,Ambulance Service,Special Clinical Services: Antenatal Care (ANC), Immunization, HIV/ AIDS Services, Family Planning, Intensive Care Services , Accidents and Emergency,Obstetrics & Gynecology Services: Obstetrics, Gynecology, Fertility/Assisted Reproductive Techniques,Onsite Laboratory,Onsite Pharmacy",Facility Level: Myom Hospital is a Secondary Health Care Centre,"[object Object],[object Object],[object Object],[object Object],[object Object],[object Object],[object Object]"
Faith Foundation Specialist Clinic,,,,,faithfoundationmedical.com,"executive@faithfoundationmedical.com, faithfoundationclinic57@yahoo.com",Private,Specialist and Maternity hospital,Its well groomed hospital with all the equipment. Clean and current when it comes to service delivery,"[object Object],[object Object],[object Object],[object Object],[object Object],[object Object],[object Object]"
Bakor Medical Centre,,,,,bakorhospitals.com,"info@bakorhospitals.com, bmc.admin@bakorhospitals.com",Private,"Out-patient clinics,In-patient care,Surgical Services,Family healthcare,Womenâ€™s healthcare (Ante-Natal, Post-Natal care, Gynecological Services),DNA Services,Family Planning,Childrenâ€™s healthcare including: Infant welfare (immunization),Mental health counseling,Acute and Urgent care 24/7,Diagnostic and Laboratory services,Ambulance service,Medical examinations for Pre-employment, Pre-travel, insurance and school admission,Health Education and Support groups (hypertension classes, diabetic classes, health and wellness classes),Mobile services (home care visits),Seafarers Medical Certification,Insurance medical care,Comprehensive HIV Services (Counselling, Testing and Treatment),Birth Registration,Eye examination,Clinical research/Clinical Trials","An exceptional leader in Cross River State who has proven himself amongst his contemporaries as a force to be reckoned with both in the medical profession and the general society,Dr. Sylvester E.N Ebaye is a medical guru who has proven himself a worthy  leader and untiring philanthropist,An exceptional Family Physician whose gentle and wonderful nature makes him an excellent and calming medical professional, perfectly complimenting his clinical expertise","[object Object],[object Object],[object Object],[object Object],[object Object],[object Object],[object Object]"
"General Hospital, Calabar",,,,,,,Public,"Maternity,Surgery,Obstetric & Gynaecology,Emergency,Facility Level: Calabar General Hospital is a Secondary Health Care Centre","Wheelchair-accessible,Beautiful environment and some of the doctors (workers) very nice and friendly","[object Object],[object Object],[object Object],[object Object],[object Object],[object Object],[object Object]"
Danex Hospital,,,,,,,Private,"Danex Medical Centre offers medical services in general patient treatment such as medical laboratory, general surgery, gynecology, radiology and other medical treatment services",,"[object Object],[object Object],[object Object],[object Object],[object Object],[object Object],[object Object]"
County Specialist Hospital,,,,,,County Specialist Hospital,Private,"Gynaecology,Trauma Surgery,X Ray,Electrocardiography,Scanning,Photocopy Services",,"[object Object],[object Object],[object Object],[object Object],[object Object],[object Object],[object Object]"
Calabar Specialist Hospital,,,,,,,Public,"Geared towards the delivery of qualitative, efficient and prompt medical care,Offers services to those in need of care, expert advice, and/or additional options for patient care, prevention of illness, and informed choices for a healthy lifestyle","Their wards are conducive for patients' relaxation and their staff are both warm and efficient in carrying out their work. This place also has a secured car park for about 80 vehicles,This referral, state-of-the-art, multi-discipline hospital. Located in the serene environment of the Summit Hills that is easily accessible,It boasts of 105 inpatient beds, 5 ICU Beds and 4 NICU beds. It also has 4 Operating Theaters,Most common visitors: The sick, the aged, pregnant and nursing mothers, medical practitioners","[object Object],[object Object],[object Object],[object Object],[object Object],[object Object],[object Object]"
Niima Consultant Clinic,,,,,,niimaconsultantshosp@yahoo.com,Private,,,"[object Object],[object Object],[object Object],[object Object],[object Object],[object Object],[object Object]"
Bauchi State Specialist Hospital,,,,,,,Public,"Medical Services: Gastroenterology, Hematology, Neurology,Surgical Services: Ophthalmology, General Surgery, Cardiothoracic Surgery, Neuro-Surgery, Urology, Pediatric Surgery, Pathology,Pediatrics Services: Gastroenterology, Neonatology,Special Clinical Services: Antenatal Care (ANC), Immunization, HIV/ AIDS Services, Tuberculosis, Non Communicable Diseases, Family Planning, Intensive Care Services , Communicable Diseases, Hepatitis, Child Survival, Accidents and Emergency, Nutrition, Health Education and Community Mobilization, Maternal and newborn care, Scanning","Facility Level: Bauchi Specialist Hospital is a Tertiary Health Care Centre,Its old Tatari Ali polytechnic where specialist hospital is build and it become one among the modern hospital in Bauchi State","[object Object],[object Object],[object Object],[object Object],[object Object],[object Object],[object Object]"
Federal Medical Centre Azare,,,,,fmcazare.gov.ng,"fmcazare2000@gmail.com, fmcazare2000@gmail.com",Public,"Medicine: Outpatients Clinic 24hrs Emergency Coverage Inpatient Ward Service Diagnostics: Daily Electro-Cardiology (ECG) Weekly Echo-Cardiography,Dental Services: Outpatient Clinic Extraction Filling Scaling and Polishing Surgical Extraction Dental Surgery Splinting IMF (Multiple Fracture) Tooth Replacement,NHIS Services: Consultations Services Laboratory Services Pharmaceutical Services Radiology Services Patient Couseling Providing secondary services to NHIS clients by referring patients to specialty clinics for other services.,Pathology: Medical Microbiology Acid Fast Bacilli Blood Culture CSF Microscopy Gene Expert Microscopy Culture and Sensitivity (Urine, Sputum, Stool) Montaux Test MP/Widal Test Rheumatoid Factor Semen Analysis Skin Snip,Radiology: ULTRASONOGRAPHY: Musculo-skeletal scan Obstetrics and Gynaecology abdominal scan pelvic scan chest ultrasonography ocular scan vascular scan (doppler study) breast scan scrotal scan, etc.,Ophthalmology: Consultation on various Eye Ailments Medical Treatment of Eye Diseases Refraction Optical Correction of Refractive Errors","It is a federal institution which provide tertiary healthcare service deliver to the people,It is a fully-functional 300-bedded hospital with state-of-the-art medical equipment,The mandate of the Centre is to provide excellent healthcare services, training and research using professional staff and modern technology","[object Object],[object Object],[object Object],[object Object],[object Object],[object Object],[object Object]"
Pahlycon Hospital,,,,,,,Private,"Blood bank,Ambulance service","Users have reported the following experiences for Pahlycon Hosipital: Experience at the facility was good,Modes of payment: Cash","[object Object],[object Object],[object Object],[object Object],[object Object],[object Object],[object Object]"
Al-Ameen Hospital,,,,,,info@alameennigeria.com,Private,"Routine outpatient medical consultation,Specialist medical consultation (by appointment),Local Referral,International referral (Saudi Arabia only),Automated laboratory services (24 hours),Ultrasound Scan,Ante-natal care,Health Insurance,Medical screening and Medical reports,Child health services (vaccinations & wellness clinic),Public health research (clinical and community based),Emergency bed service",Modes of Payment: Cash,"[object Object],[object Object],[object Object],[object Object],[object Object],[object Object],[object Object]"
Abubakar Tafawa Balewa University Teaching Hospital (ATBUTH),,,,,atbuth.ng,info@atbuth.ng,Public,"Internal Medicine,Family Medicine,Community Medicine,Radiology,Opthalmology,Othopedic,Surgery,Obstetric and Gynaecology,Ear, Nose and Throat,Paediatric,Psychiatry,MGIDR Laboratory,Physiotherapy,Medical Social Services,Health Information Management",,"[object Object],[object Object],[object Object],[object Object],[object Object],[object Object],[object Object]"
Mount Olive Hospital,,,,,,,Private,"Health Care,Personal service",,"[object Object],[object Object],[object Object],[object Object],[object Object],[object Object],[object Object]"
St Athanasius Hospital,,,,,,,Private,St Athanasius Hospital is a private hospital that is dully approved to provide medical services on surgery and general medical practice,Wheelchair-accessible,"[object Object],[object Object],[object Object],[object Object],[object Object],[object Object],[object Object]"
Nduye Medical Services,,,,,,abraham_inyangudoh@yahoo.com,Private,"Provides medical services in the areas of consultation and counselling, medical checkup and other services",,"[object Object],[object Object],[object Object],[object Object],[object Object],[object Object],[object Object]"
Samaritan Clinic & Hospital,,,,,samaritanclinics.com,CMO@SAMARITANCLINICS.COM,Private,"Medical treatment and Medical certification in industrial health,Drug and Alchohol test,TB screening,Audiometry,Ultrasound,X Ray,Medical retainership,First aid training and oxygen administration,Ambulance Service,Laboratory Service,Pharmacy","The wards are made up of private wards, general and childrenâ€™s ward","[object Object],[object Object],[object Object],[object Object],[object Object],[object Object],[object Object]"
Peace Hospital,,,,,,,Private,,"Peace hospital is one of the foremost private hospitals in Jimeta Adamawa state. The hospital still pride itself as one of the best as well,It is well organised and the staffs can be friendly on a good day,It is usually crowded maybe because its good and affordable. The staff should learn crowd management.","[object Object],[object Object],[object Object],[object Object],[object Object],[object Object],[object Object]"
Adamawa-German Medical Centre,,,,,,agmcyola2@gmail.com,Private,"Operation Theatres,Diagnostic,X-ray,Mammography,Sonography,Ergometry","A high quality surgical and laboratory equipped hospital with wide range of health care assistance,Hi-Tech medical facilities available and friendly German Doctors as well","[object Object],[object Object],[object Object],[object Object],[object Object],[object Object],[object Object]"
General Hospital Michika,,,,,,,Public,"Medical Services: Gastroenterology,Dermatology,Hematology,Infectious Diseases,Surgical Services: General Surgery, Pathology,Pediatrics Services: Gastroenterology, Pulmonology, Neonatology,Special Clinical Services: Antenatal Care (ANC), Immunization, HIV/ AIDS Services, Tuberculosis, Non Communicable Diseases, Family Planning, Intensive Care Services , Communicable Diseases, Hepatitis, Child Survival, Accidents and Emergency, Nutrition, Health Education and Community Mobilization, Maternal and newborn care,Obstetrics & Gynecology Services: Obstetrics, Gynecology, Fertility/Assisted Reproductive Techniques,Ambulance Service,Onsite Laboratory,Onsite Imaging,Mortuary Service",Facility Level: Michika General Hospital is a Secondary Health Care Centre,"[object Object],[object Object],[object Object],[object Object],[object Object],[object Object],[object Object]"
General Hospital Numan,,,,,,,Public,,,"[object Object],[object Object],[object Object],[object Object],[object Object],[object Object],[object Object]"
Federal Medical Centre,,,,,fmcyola.gov.ng,,Public,"This is a multi-specialist hospital that has grown to become one of Nigeriaâ€™s leading hospitals, providing reliable, affordable, effective and high quality healthcare for all patients","The facility is not only fully furnished but provided with state-of-the-art equipment in the theatres, laboratories, radio-diagnosis, Special Care Baby Unit (SCBU), Dialysis Unit etc, which are intended to provide patient-friendly and conducive working environment for its staff","[object Object],[object Object],[object Object],[object Object],[object Object],[object Object],[object Object]"
New Boshang Hospital ltd,,,,,boshanghospital.com,newboshangclinicltd@gmail.com,Private,Well equipped facilities providing specialized health care services and general surgery,Excellent Medical services rendered at a very affordable cost and instalment payments of bills for the less privileged in the society,"[object Object],[object Object],[object Object],[object Object],[object Object],[object Object],[object Object]"
Adetade Hospital,,,,,,adetadehospital@gmail.com,Private,"Obstetric & Gynaecology,Ultrasound Scanning services","You get prompt attention and good quality care anytime of the day or night,There is also a standard Dental unit with Modern Facilities","[object Object],[object Object],[object Object],[object Object],[object Object],[object Object],[object Object]"
St. Gregoryâ€™s Hospital,,,,,stgregoryshospital.com,doctor@stgregoryshospital.com,Private,"Emergency,Out-patient,In-Patient,Ambulance,ElectroCardiography (ECG),Family Planning,Paediatrics,X-Ray,General Surgery,Obstetric & Gynaecology,Ultrasound Diagnostic,Clinical laboratory,General Practice,NHIS Services","If youâ€™d like to visit a patient, please contact the patient information desk at the hospital or call us on 08033580364 for more information,Accommodate visitors where it is appropriate to do so, and provide waiting rooms for families to use while patients are undergoing surgery or other procedures. These rooms are open daily from 7am to 10pm","[object Object],[object Object],[object Object],[object Object],[object Object],[object Object],[object Object]"
FEDERAL TEACHING HOSPITAL IDO-EKITI,,,,,fethi.gov.ng,,Public,"Accident & Emergency,Haematology & Blood Transfusion,Surgery,Family Medicine,Dentistry,Radiology,Dietetic,Medicine,Physiotherapy,Pharmacy,Paediatrics,EAR, NOSE & THROAT (OTO-RHINO-LARYNGOLOGY),CHEMICAL PATHOLOGY",,"[object Object],[object Object],[object Object],[object Object],[object Object],[object Object],[object Object]"
Federal Medical Center,,,,,,,Public,"Obstetric & Gynaecology,Ophthalmology,Orthopaedics,Paediatrics,Pharmacy,Radiology,Ear, Nose and Throat,Internal Medicine,Dental,Oral Surgery,Community Health,Anaesthesia,Mental Health",,"[object Object],[object Object],[object Object],[object Object],[object Object],[object Object],[object Object]"
State Specialist Hospital,,,,,,,Public,Provides general medical care and health services,"Wheelchair-accessible,Serene environment with courteous staff","[object Object],[object Object],[object Object],[object Object],[object Object],[object Object],[object Object]"
Kenechukwu Specialist Hospital,,,,,,kenehosp@yahoo.com,Private,,"Wheelchair-accessible,A clean & affordable hospital","[object Object],[object Object],[object Object],[object Object],[object Object],[object Object],[object Object]"
Akulue Memorial Hospital,,,,,,,Public,Medical Center,,"[object Object],[object Object],[object Object],[object Object],[object Object],[object Object],[object Object]"
Enugu State University Teaching Hospital (ESUTH) Parklane,,,,,esuth.org,parklanehospitalenugu@yahoo.com,Public,"Pharmacy,SCHOOL OF MIDWIFERY,Obstetric & Gynaecology,Internal Medicine,HISTOPATHOLOGY: Laboratory Unit, Mortuary Unit, Forensic unit/Assault clinic,MEDICAL SOCIAL SERVICES,Nutrition & Dietetics,Surgery,Paediatrics","Awesome Environment...really cool and calm even on the busiest school days.Very optimal learning environment,This is hospital has lots of people traffic,the environment is very neat. It is expensive. Special cases are Also treated. ESUT medical students also reside and study there,Low parking space","[object Object],[object Object],[object Object],[object Object],[object Object],[object Object],[object Object]"
Federal Teaching Hospital,,,,,fthgombe.gov.ng,cmd@fthgombe.gov.ng,Public,"Medicine:- ECG, Echocardiography, Holter monitoring, Dialysis, Upper and Lower GIT Endoscopy,Surgery:- Lower GIT Endoscopy, Endoscopic surgery, cryotherapy/cryoshape therapy for keloids and related lesion,ENT:- Audiometry, Tymponometry,Oncology:- Brachytherapy,Obstetrics & Gynaecology:-  Colposcopy, endoscopic Surgery, cryotherapy,Ophthalmology:- Oculoplastic Surgeries,Dental Surgery,Accident & Emergency [A & E],General Out-patient [Family Medicine],Radiology:- MRI, CT, Mammography, flouroscopy,Physiotherapy,Pharmacy,Nursing Services,Laboratories:- PCR, Immunohistochemistry, Hormonal Assay, Tumor Markers, Bone Marrow Studies, Acute Phase Reactants, Quantitative Rhfactor, Neonatal diagnosis of sickle cell anemia,Histopathology: Immunohistochemistry,Paediatrics:- Phototherapy, Exchange Blood Transfusion","Federal Medical Center now Federal Teaching Hospital, Gombe is a federal government of Nigeria medical centre located in Gombe. And it's widely consider as the largest and the best hospital in Gombe state,Strategically placed in the heart of Gombe. The teaching hospital is easily accessible to all and sundry. They provide a wide range of healthcare needs to the public,This is tertiary health institution that carters for the health of Gombe people and serve as a learning and research field for Resident doctors and medical students of Gombe State, University","[object Object],[object Object],[object Object],[object Object],[object Object],[object Object],[object Object]"
Metro Clinic,,,,,,,Private,Hospital activities,Wheelchair Accessible,"[object Object],[object Object],[object Object],[object Object],[object Object],[object Object],[object Object]"
AHAJAS Memorial Hospital,,,,,,,Private,"Medical Services,Laboratory diagnostic,Screening and Tests,X-ray,Pharmacy","The Hospital is very beautiful and neat, their charges are also fair, both the rich middle class people and poor can afford this place,Very easy to locate as its not far away from the main road. Well equipped and well furnished,The hospital has a good facilities and conducive environment for a patients to recovered in a short time. Well ventilation system and not noisy place","[object Object],[object Object],[object Object],[object Object],[object Object],[object Object],[object Object]"
Miyetti Hospital,,,,,,miyettihospital@yahoo.com,Private,"Pathology,Orthopaedic,Cardiology,Ambulance Service,Pharmacy,Diabetic Care",Good services & nice environment,"[object Object],[object Object],[object Object],[object Object],[object Object],[object Object],[object Object]"
Umezuruike Hospital,,,,,umezuruikehospital.com,"info@umezuruikehospital.com, umezhospital@yahoo.com",Private,"General out-patient clinic,Surgical out-patient clinic,Antenatal / postnatal clinic,Pediatric out-patient clinic,Ultrasonography services with two MINDRAY 3DC-N3 ultrasound  machines manned by trained sonographers and sonologists,X-ray services: fully equipped to carry out routine and specialized procedures including requests from outside the hospital,Laboratory services: The laboratory is equipped to carry out virtually all laboratory tests and takes requests from outside the hospital,Ear Nose and Throat (ENT) Clinic,Electrocardiography services,Eye clinic for various eye diseases,Echo cardiography","Umezuruike hospital is a 50-bed hospital for both ordinary and private room admissions in the various specialties of Medicine, Surgery, Obstetrics and Gynaecology and Paediatrics,A modern air conditioned fully equipped ambulance is stand by 24 hours a day with trained ambulance drivers","[object Object],[object Object],[object Object],[object Object],[object Object],[object Object],[object Object]"
Federal Medical Center Owerri,,,,,,contact@fcmowerri.com.ng,Public,"Paediatrics,Obstetrics and Gynaecology,Medicine,Family Medicine,Internal Medicine,Anesthesia,Ophthalmology,Pharmacy,Radiology,Surgery,Clinical Chemistry,Nutrition and Dietetics,Orthopedics,Physiotherapy","FMC Owerri is a tertiary institution located within the Imo State Capital, and offers all forms of healthcare services,All the major clinical units are up and running, and as well the laboratory services,They also train healthcare professionals of various cardres.Aside the limitation of space (it is actually relatively small), everything else is okay","[object Object],[object Object],[object Object],[object Object],[object Object],[object Object],[object Object]"
Federal Medical Centre jigawa,,,,,fmcbkd.gov.ng,info@fmcbkd.gov.ng,Public,Medical Services,"Its a very nice place to work, because u get to know more when it comes to hospitality, they are very accommodating,you learn more about patients, the Doctors and nurses how the carry out their job functions,go to ward rounds,attends to patients,relatives and caregivers","[object Object],[object Object],[object Object],[object Object],[object Object],[object Object],[object Object]"
General Hospital Dutse,,,,,,,Public,"The General Hospital caters for everyone in her capacity. The mission of the hospital is to ensure the provision of safe, quality, affordable, adequate, equitable and accessible health services to all people in Nigeria",,"[object Object],[object Object],[object Object],[object Object],[object Object],[object Object],[object Object]"
Sefa Specialist Hospital,,,,,sefaspecialisthospital.com,info@sefaspecialisthospital.com,Private,"Sefa Specialist Hospital provide experts surgeons, physicians, pediatricians, obstetricians, etc, to attend to various health issues",Wheelchair Accessible,"[object Object],[object Object],[object Object],[object Object],[object Object],[object Object],[object Object]"
Zaria Almadina Clinic,,,,,info@almadinazaria.com,almadinazaria.com,Private,"Pharmacy,Paediatrics,Gynaecology,Ophthalmology,Surgery,Laboratory,Urology,Rheumatology",Qualitative and affordable healthcare solutions,"[object Object],[object Object],[object Object],[object Object],[object Object],[object Object],[object Object]"
Continental Medical Centre,,,,,continentalmedcentre.com,,Private,"General Physician Doctors,Paediatricians",,"[object Object],[object Object],[object Object],[object Object],[object Object],[object Object],[object Object]"
Onward Specialist Hospital,,,,,onwardsphospital.org,"onwardsphosp@yahoo.com, audit.onwardhospital@gmail.com",Private,"General Medicine,Surgery,Maternal and Child Health,Laboratory,Blood Bank,X-Ray Services,Endoscopy,Ultrasound,Ambulance Service,Pharmacy,ECG and Echo,Nutritional & Catering Services",An accredited healthcare provider for the National Health Insurance Scheme (NHIS),"[object Object],[object Object],[object Object],[object Object],[object Object],[object Object],[object Object]"
St John And Mary Hospital,,,,,,docbayooni2@yahoo.com,Private,Offering specialized and affordable healthcare services,"Its an old hospital, A little improvement on facility","[object Object],[object Object],[object Object],[object Object],[object Object],[object Object],[object Object]"
Federal Medical Centre Abeokuta,,,,,fmcabeokuta.net,info@fmcabeokuta.org,Public,"Routine and emergency diagnostic and therapeutic clinical services covering different specialties including obstetrics and gynaecology, paediatrics, neurology, cardiology, endocrinology, gastroenterology, nephrology, psychiatry, general and oncologic surgery, orthopaedics and trauma, plastic surgery, urology, ophthalmology, oral and maxillofacial surgery, radiology, general dentistry, anaesthesia, pain and palliative medicine, community medicine and primary care, family medicine, pathology, pharmaceutical care and physiotherapy,In partnership with the Institute of Human Virology (IHVN) Abuja, patients with HIV/AIDS are offered a wide range of diagnostic, therapeutic, rehabilitative, palliative and social services in a multidisciplinary setting",,"[object Object],[object Object],[object Object],[object Object],[object Object],[object Object],[object Object]"
General Hospital Minna,,,,,,,Public,"The General Hospital caters for everyone in her capacity. The mission of the hospital is to ensure the provision of safe, quality, affordable, adequate, equitable and accessible health services to all people in Nigeria","The structure restructuring and General renovation is visible and commendable,Good hospital with great staff and support strength. Planned layout with loads of space for ventilation and ease of movement. 24 hours stand by generator set and solar systems attached to key areas","[object Object],[object Object],[object Object],[object Object],[object Object],[object Object],[object Object]"
Mararaba Adonai Hospital,,,,,adonaihospital.com,info@adonaihospital.com,Private,"Family Planning,Obstetrics and Gynaecology,General Surgery Services,Dental Services,Immunization,Eye Clinic Services,Paediatric care,IVF,Laboratory,Cardiology,Scanning Services",Adonai has had 2 decades of successful healthcare delivery to varying population groups within the Mararaba- Abuja locale and beyond,"[object Object],[object Object],[object Object],[object Object],[object Object],[object Object],[object Object]"
Sauki Clinic and Hospital,,,,,,,Private,"Medical Services: Cardiology,Infectious Diseases,Family Medicine,Surgical Services: General Surgery, Anesthesia, Radiology,Paediatrics,Ambulance Service,Obstetric & Gynaecology,Onsite Imaging,Onsite Laboratory,Onsite Pharmacy,Special Clinical Services: Antenatal Care (ANC), Immunization, HIV/ AIDS Services, Non Communicable Diseases, Family Planning, Intensive Care Services , Hepatitis, Accidents and Emergency, Nutrition, Health Education and Community Mobilization, Maternal and newborn care",Facility Level: Sauki Clinic and Hospital is a Secondary Health Care Centre,"[object Object],[object Object],[object Object],[object Object],[object Object],[object Object],[object Object]"
Federal Medical Center Lokoja,,,,,fmclokoja.org.ng,FMCLKJ@gmail.com ,Public,"Obstetric & Gynaecology,Internal Medicine,Pharmacy,Dental,Radiology,Physiotherapy,LABORATORY,Ambulance Service,Consultant Report",Facility Level: Lokoja Federal Medical Centre is a Tertiary Health Care Centre,"[object Object],[object Object],[object Object],[object Object],[object Object],[object Object],[object Object]"
Medcare Hospital,,,,,medcareng.com,"medcarehospital@gmail, medcarehospitalsng@gmail.com",Private,"Medical Services: Cardiology, Gastroenterology, Nephrology, Endocrinology, Geriatrics, Pulmonology, Psychiatry/Behavioral Medicine, Family Medicine,Surgical Services: General Surgery, Anesthesia, Otorhinolaryngology (ENT),Pediatrics Services: Neonatology,Obstetric & Gynaecology,Special Clinical Services: Antenatal Care (ANC), Immunization, HIV/ AIDS Services, Tuberculosis, Non Communicable Diseases, Family Planning, Hepatitis, Accidents and Emergency,Onsite Laboratory,Onsite Pharmacy",Facility Level: MED Care Hospital is a Secondary Health Care Centre,"[object Object],[object Object],[object Object],[object Object],[object Object],[object Object],[object Object]"
Sir Yahaya Memorial Hospital,,,,,siryahayahospital.com,,Public,"Emergency,General health care,Children health care,Adult Health care,Medical laboratory,Pharmacy,Medical Services"," Its has a great view, its a convenient environment for both patients and doctors, its a Condusive atmosphere for health and medical activities","[object Object],[object Object],[object Object],[object Object],[object Object],[object Object],[object Object]"
Standard Specialist Hospital,,,,,,standardspecialisthospitals@yahoo.com,Private,"Out Patient Care,Emergency Services,Paediatric care,Obstetric & Gynaecology,Radiology",Wheelchair Accessible,"[object Object],[object Object],[object Object],[object Object],[object Object],[object Object],[object Object]"
Wudil General Hospital,,,,,,,Public,General Hospital services,Wheelchair Accessible,"[object Object],[object Object],[object Object],[object Object],[object Object],[object Object],[object Object]"
Federal Medical Centre Katsina,,,,,fmckatsina.gov.ng,,Public,General Medical service,Federal Medical Center provides the primary health care and tertiary health care to the people,"[object Object],[object Object],[object Object],[object Object],[object Object],[object Object],[object Object]"
Sokoto clinic,,,,,,,Private,Medical Services,,"[object Object],[object Object],[object Object],[object Object],[object Object],[object Object],[object Object]"
Usmanu Danfodiyo Teaching Hospital,,,,,uduth.org.ng,info@uduth.org.ng,Public,"General Out Patient Clinic (GOPD),Medical Out-patient Clinic (MOPD),Surgery,Anaesthesiology,Neuro Surgery,Radiology,Ear Nose and Throat (ENT) Clinic,Dental,Nursing Services,Medical Library,Family Medicine,Community Medicine,Obstetrics & Gynaecology,Accident & Emergency,Paediatrics,Radiotherapy,Opthalmology,Pharmacy,Psychiatry",,"[object Object],[object Object],[object Object],[object Object],[object Object],[object Object],[object Object]"
Federal Medical Centre Jalingo,,,,,fmcjalingo.gov.ng,info@fmcjalingo.gov.ng,Public,"ANAESTHESIA DEPARTMENT,DENTISTRY DEPARTMENT,FAMILY MEDICINE DEPARTMENT,INTERNAL MEDICINE DEPARTMENT,MEDICAL SOCIAL SERVICES DEPARTMENT,MEDICAL LABORATORY SERVICES DEPARTMENT,NURSING SERVICES DEPARTMENT,NUTRITION AND DIETETICS DEPARTMENT,OBSTETRICS AND GYNAECOLOGY DEPARTMENT,OPHTHALMOLOGY DEPARTMENT,PAEDIATRICS DEPARTMENT,PATHOLOGY DEPARTMENT,PHARMACY DEPARTMENT,PHYSIOTHERAPY DEPARTMENT,RADIOLOGY DEPARTMENT,SURGERY DEPARTMENT,WORKS AND MAINTENANCE DEPARTMENT",,"[object Object],[object Object],[object Object],[object Object],[object Object],[object Object],[object Object]"
"Federal Medical Centre, Nguru",,,,,,,Public,Medical Services,,"[object Object],[object Object],[object Object],[object Object],[object Object],[object Object],[object Object]"
DAULA HOSPITAL & MATERNITY HOME,,,,,,"DAULAHOSPITAL@YAHOO.COM, DAULAHOSPITAL@HOTMAIL.COM",Private,General Hospital services,,"[object Object],[object Object],[object Object],[object Object],[object Object],[object Object],[object Object]"
Poly Medical And Diagnostic Centre,,,,,,,Private,General Medical service,"Facility Level: Poly Diagnostic Centre is a Primary Health Care Centre,Wheelchair Accessible","[object Object],[object Object],[object Object],[object Object],[object Object],[object Object],[object Object]"
Yobe Medical Centre,,,,,ysuth.org,info@ysuth.org,Public,"Accident & Emergency,Radio-diagnostic department,Surgery,Ophthalmology,Dental,Ear Nose and Throat (ENT),Laboratory,Nephrology and Renal dialysis,Physiotherapy,Ambulance,Pharmacy",The hospital fees are highly subsidized without quality compromise,"[object Object],[object Object],[object Object],[object Object],[object Object],[object Object],[object Object]"
